HIMAWARI-8              
1 40267U 14060A   23310.89007705 -.00000268  00000+0  00000+0 0  9990
2 40267   0.0435  99.4925 0001106 117.1130 290.3531  1.00273311 33202
